[{"OBJECT_NAME":"STRIX-4","OBJECT_ID":"2024-137A","EPOCH":"2026-03-09T15:41:49.501824","MEAN_MOTION":15.29026224,"ECCENTRICITY":0.00168396,"INCLINATION":43.0134,"RA_OF_ASC_NODE":129.8162,"ARG_OF_PERICENTER":5.2738,"MEAN_ANOMALY":354.8289,"EPHEMERIS_TYPE":0,"CLASSIFICATION_TYPE":"U","NORAD_CAT_ID":60352,"ELEMENT_SET_NO":999,"REV_AT_EPOCH":8876,"BSTAR":0.00071819834,"MEAN_MOTION_DOT":0.0002053,"MEAN_MOTION_DDOT":0},{"OBJECT_NAME":"STARLINK-35280","OBJECT_ID":"2025-232W","EPOCH":"2026-03-09T18:47:31.049664","MEAN_MOTION":15.30199526,"ECCENTRICITY":0.00013417,"INCLINATION":53.1572,"RA_OF_ASC_NODE":103.2014,"ARG_OF_PERICENTER":73.6624,"MEAN_ANOMALY":286.4525,"EPHEMERIS_TYPE":0,"CLASSIFICATION_TYPE":"U","NORAD_CAT_ID":66025,"ELEMENT_SET_NO":999,"REV_AT_EPOCH":2345,"BSTAR":0.00025835922,"MEAN_MOTION_DOT":7.3e-5,"MEAN_MOTION_DDOT":0}]
